GSAT0101 (PRN E11)      
1 37846U 11060A   23237.91140343 -.00000074  00000+0  00000+0 0  9998
2 37846  57.1086   9.5543 0002090  74.2227 285.8064  1.70475827 73754
GSAT0102 (PRN E12)      
1 37847U 11060B   23238.42341112 -.00000075  00000+0  00000+0 0  9994
2 37847  57.1094   9.5404 0001286   3.1467 357.4053  1.70475231 73644
GSAT0103 (PRN E19)      
1 38857U 12055A   23239.12370705 -.00000004  00000+0  00000+0 0  9991
2 38857  55.2790 129.7191 0003019 269.0337  90.9927  1.70473610 67530
GSAT0104 (PRN E20)      
1 38858U 12055B   23239.09317360 -.00000004  00000+0  00000+0 0  9996
2 38858  55.2792 129.7217 0000501 262.1961  97.8592  1.70473865 67538
GSAT0201 (PRN E18)      
1 40128U 14050A   23239.25807119 -.00000050  00000+0  00000+0 0  9991
2 40128  49.9425 314.8908 1609272 140.0678 232.9777  1.85519036 59308
GSAT0202 (PRN E14)      
1 40129U 14050B   23239.51748692 -.00000047  00000+0  00000+0 0  9997
2 40129  49.9616 313.9518 1607130 140.8892 231.9301  1.85519693 61477
GSAT0203 (PRN E26)      
1 40544U 15017A   23238.86405241 -.00000077  00000+0  00000+0 0  9992
2 40544  56.9042   9.5026 0002800 222.0197 137.9629  1.70476038 51728
GSAT0204 (PRN E22)      
1 40545U 15017B   23239.11765438 -.00000077  00000+0  00000+0 0  9999
2 40545  56.9100   9.5100 0003247 204.0760 155.9123  1.70475553 14773
GSAT0205 (PRN E24)      
1 40889U 15045A   23239.47220780  .00000073  00000+0  00000+0 0  9991
2 40889  55.3677 249.9136 0003316 357.4939   2.5495  1.70473382 49543
GSAT0206 (PRN E30)      
1 40890U 15045B   23237.34655511  .00000076  00000+0  00000+0 0  9994
2 40890  55.3679 249.9680 0002315 321.8371  38.1917  1.70473394 49530
GSAT0209 (PRN E09)      
1 41174U 15079A   23239.27798926 -.00000004  00000+0  00000+0 0  9991
2 41174  55.2968 129.4217 0003300 326.9179  33.1235  1.70473853 47885
GSAT0208 (PRN E08)      
1 41175U 15079B   23238.32442760 -.00000003  00000+0  00000+0 0  9998
2 41175  55.2945 129.4461 0002657 328.9403  31.1039  1.70473745 47709
GSAT0211 (PRN E02)      
1 41549U 16030A   23239.03199053  .00000075  00000+0  00000+0 0  9992
2 41549  55.5143 249.9007 0003930 307.4165  52.5937  1.70473483 45197
GSAT0210 (PRN E01)      
1 41550U 16030B   23238.15035376  .00000077  00000+0  00000+0 0  9995
2 41550  55.5140 249.9261 0004227 273.2450  86.7530  1.70473653 45170
GSAT0207 (PRN E07)      
1 41859U 16069A   23238.39866786 -.00000004  00000+0  00000+0 0  9993
2 41859  54.9589 129.5201 0003323 307.1286  52.9007  1.70473805 41910
GSAT0212 (PRN E03)      
1 41860U 16069B   23239.42650840 -.00000005  00000+0  00000+0 0  9993
2 41860  54.9569 129.4883 0002568 348.4940  11.5624  1.70474049 42187
GSAT0213 (PRN E04)      
1 41861U 16069C   23239.20593235 -.00000005  00000+0  00000+0 0  9994
2 41861  54.9592 129.5005 0002978 279.6844  80.3433  1.70472670 42049
GSAT0214 (PRN E05)      
1 41862U 16069D   23237.59339753 -.00000001  00000+0  00000+0 0  9994
2 41862  54.9572 129.5393 0002150 288.6937  71.3423  1.70472544 42143
GSAT0215 (PRN E21)      
1 43055U 17079A   23239.25540045  .00000074  00000+0  00000+0 0  9994
2 43055  55.4906 249.7207 0003769 267.6858  92.3163  1.70474145 35517
GSAT0216 (PRN E25)      
1 43056U 17079B   23237.20099100  .00000076  00000+0  00000+0 0  9991
2 43056  55.4917 249.7772 0005326 273.3466  86.6371  1.70474333 35490
GSAT0217 (PRN E27)      
1 43057U 17079C   23238.00792849  .00000077  00000+0  00000+0 0  9992
2 43057  55.4905 249.7538 0004669 284.4918  75.5023  1.70474284 35498
GSAT0218 (PRN E31)      
1 43058U 17079D   23239.40114749  .00000073  00000+0  00000+0 0  9991
2 43058  55.4891 249.7130 0005777 270.9391  89.0395  1.70474194 35545
GSAT0221 (PRN E15)      
1 43564U 18060A   23239.30082196 -.00000077  00000+0  00000+0 0  9998
2 43564  57.2847   9.4169 0002401 252.8311 107.1454  1.70475940 31693
GSAT0222 (PRN E33)      
1 43565U 18060B   23238.93231277 -.00000076  00000+0  00000+0 0  9992
2 43565  57.2881   9.4279 0003113 206.4055 153.5824  1.70475690 31738
GSAT0219 (PRN E36)      
1 43566U 18060C   23238.56807338 -.00000075  00000+0  00000+0 0  9998
2 43566  57.2872   9.4397 0001431 256.9537 103.0349  1.70475942 31705
GSAT0220 (PRN E13)      
1 43567U 18060D   23238.78847856 -.00000076  00000+0  00000+0 0  9993
2 43567  57.2869   9.4346 0001742 248.2487 111.7368  1.70475627 31694
GSAT0223 (PRN E34)      
1 49809U 21116A   23238.65019376 -.00000075  00000+0  00000+0 0  9997
2 49809  57.2780   9.3343 0003262 169.0253 196.3634  1.70475850 10709
GSAT0224 (PRN E10)      
1 49810U 21116B   23239.63295485 -.00000079  00000+0  00000+0 0  9999
2 49810  57.2795   9.3060 0002869 158.3360 202.6770  1.70475810 10747
